{
    "satellites": [
        {
            "name": "starlink343",
            "title": "Starlink-343 (G6-98)",
            "tle": [
                "1 67473C 26008AE  26025.77479167 -.01619600  00000+0 -47362-2 0   254",
                "2 67473  43.0012  93.9364 0000982 279.2021 179.4465 15.93402786    17"
            ],
            "stdMag": 5,
            "noradId": "67473",
            "tleUrl": "http://celestrak.org/NORAD/elements/supplemental/sup-gp.php?FILE=starlink&FORMAT=tle",
            "launchDate": "2026-01-14T18:08:20.000Z",
            "active": true,
            "batch": [
                {
                    "noradId": "67473",
                    "tle": [
                        "1 67473C 26008AE  26025.77479167 -.01619600  00000+0 -47362-2 0   254",
                        "2 67473  43.0012  93.9364 0000982 279.2021 179.4465 15.93402786    17"
                    ]
                },
                {
                    "noradId": "67472",
                    "tle": [
                        "1 67472C 26008AD  26025.77340278 -.01519700  00000+0 -44365-2 0   253",
                        "2 67472  43.0010  93.9838 0001083 281.5248 153.7112 15.93332153    14"
                    ]
                },
                {
                    "noradId": "67471",
                    "tle": [
                        "1 67471C 26008AC  26025.78104167 -.01366700  00000+0 -40010-2 0   251",
                        "2 67471  43.0014  94.0066 0001196 280.3292 171.2336 15.93122583    10"
                    ]
                },
                {
                    "noradId": "67470",
                    "tle": [
                        "1 67470C 26008AB  26025.77270833 -.01457500  00000+0 -42552-2 0   255",
                        "2 67470  43.0012  94.0148 0001192 280.8779 140.0070 15.93267809    19"
                    ]
                },
                {
                    "noradId": "67468",
                    "tle": [
                        "1 67468C 26008Z   26025.78034722 -.01321200  00000+0 -38714-2 0   250",
                        "2 67468  43.0016  94.0330 0001334 279.9761 159.0451 15.93058218    16"
                    ]
                },
                {
                    "noradId": "67469",
                    "tle": [
                        "1 67469C 26008AA  26025.77270833 -.01416000  00000+0 -41370-2 0   250",
                        "2 67469  43.0014  94.0342 0001318 281.9912 131.2902 15.93212061    12"
                    ]
                },
                {
                    "noradId": "67467",
                    "tle": [
                        "1 67467C 26008Y   26025.77618056 -.01468800  00000+0 -47835-2 0   258",
                        "2 67467  43.0014  94.1687 0001295 279.4292  92.3579 15.91153135    11"
                    ]
                },
                {
                    "noradId": "67466",
                    "tle": [
                        "1 67466C 26008X   26025.77548611 -.01452800  00000+0 -47362-2 0   254",
                        "2 67466  43.0014  94.1801 0001307 275.2212  89.7699 15.91116929    11"
                    ]
                },
                {
                    "noradId": "67465",
                    "tle": [
                        "1 67465C 26008W   26025.77479167 -.01435300  00000+0 -46829-2 0   255",
                        "2 67465  43.0015  94.1924 0001360 275.9242  81.9631 15.91082582    13"
                    ]
                },
                {
                    "noradId": "67464",
                    "tle": [
                        "1 67464C 26008V   26025.77479167 -.01423100  00000+0 -46486-2 0   258",
                        "2 67464  43.0016  94.1998 0001299 277.5287  77.5753 15.91048385    11"
                    ]
                },
                {
                    "noradId": "67463",
                    "tle": [
                        "1 67463C 26008U   26025.77548611 -.01408000  00000+0 -46034-2 0   259",
                        "2 67463  43.0017  94.2040 0001269 275.4609  80.2599 15.91014229    11"
                    ]
                },
                {
                    "noradId": "67462",
                    "tle": [
                        "1 67462C 26008T   26025.77479167 -.01395100  00000+0 -45656-2 0   252",
                        "2 67462  43.0013  94.2163 0001272 274.6693  73.7896 15.90983235    18"
                    ]
                },
                {
                    "noradId": "67461",
                    "tle": [
                        "1 67461C 26008S   26025.77479167 -.01380400  00000+0 -45233-2 0   259",
                        "2 67461  43.0013  94.2243 0001284 275.6541  69.6422 15.90942533    17"
                    ]
                },
                {
                    "noradId": "67460",
                    "tle": [
                        "1 67460C 26008R   26025.77409722 -.01368300  00000+0 -44896-2 0   257",
                        "2 67460  43.0012  94.2357 0001265 275.5818  62.8930 15.90904086    16"
                    ]
                },
                {
                    "noradId": "67459",
                    "tle": [
                        "1 67459C 26008Q   26025.77409722 -.01356000  00000+0 -44547-2 0   252",
                        "2 67459  43.0011  94.2436 0001285 274.3142  61.0319 15.90866609    10"
                    ]
                },
                {
                    "noradId": "67458",
                    "tle": [
                        "1 67458C 26008P   26025.77340278 -.01340000  00000+0 -44071-2 0   256",
                        "2 67458  43.0012  94.2569 0001246 273.4260  54.3982 15.90829162    19"
                    ]
                },
                {
                    "noradId": "67457",
                    "tle": [
                        "1 67457C 26008N   26025.77270833 -.01319500  00000+0 -43513-2 0   255",
                        "2 67457  43.0011  94.2746 0001377 273.5135  44.9541 15.90754466    11"
                    ]
                },
                {
                    "noradId": "67455",
                    "tle": [
                        "1 67455C 26008L   26025.77270833 -.01328000  00000+0 -43729-2 0   257",
                        "2 67455  43.0013  94.2686 0001431 271.5867  49.4316 15.90791888    14"
                    ]
                },
                {
                    "noradId": "67456",
                    "tle": [
                        "1 67456C 26008M   26025.77270833 -.01309300  00000+0 -43237-2 0   254",
                        "2 67456  43.0012  94.2817 0001284 274.3460  41.4171 15.90716836    17"
                    ]
                },
                {
                    "noradId": "67454",
                    "tle": [
                        "1 67454C 26008K   26025.77270833 -.01306100  00000+0 -43201-2 0   258",
                        "2 67454  43.0009  94.2858 0001331 271.6240  42.3143 15.90681447    13"
                    ]
                },
                {
                    "noradId": "67453",
                    "tle": [
                        "1 67453C 26008J   26025.77409722 -.01560000  00000+0 -45558-2 0   256",
                        "2 67453  42.9997  93.9600 0001124 281.9148 164.3178 15.93366959    12"
                    ]
                },
                {
                    "noradId": "67452",
                    "tle": [
                        "1 67452C 26008H   26025.77270833 -.01289500  00000+0 -42705-2 0   258",
                        "2 67452  43.0010  94.2948 0001318 274.3284  36.1306 15.90641264    11"
                    ]
                },
                {
                    "noradId": "67451",
                    "tle": [
                        "1 67451C 26008G   26025.78173611 -.01281500  00000+0 -42545-2 0   258",
                        "2 67451  43.0010  94.2463 0001341 277.0943  82.2635 15.90583918    18"
                    ]
                },
                {
                    "noradId": "67450",
                    "tle": [
                        "1 67450C 26008F   26025.78034722 -.01267100  00000+0 -42108-2 0   251",
                        "2 67450  43.0009  94.2633 0001280 274.0209  73.9833 15.90549319    12"
                    ]
                },
                {
                    "noradId": "67449",
                    "tle": [
                        "1 67449C 26008E   26025.78104167 -.01253800  00000+0 -41722-2 0   253",
                        "2 67449  43.0012  94.2674 0001270 273.9550  74.7508 15.90510556    14"
                    ]
                },
                {
                    "noradId": "67448",
                    "tle": [
                        "1 67448C 26008D   26025.78034722 -.01243000  00000+0 -41412-2 0   258",
                        "2 67448  43.0012  94.2788 0001331 276.0636  65.8449 15.90474794    14"
                    ]
                },
                {
                    "noradId": "67447",
                    "tle": [
                        "1 67447C 26008C   26025.78034722 -.01233800  00000+0 -41165-2 0   259",
                        "2 67447  43.0011  94.2857 0001290 275.2449  64.0668 15.90438244    10"
                    ]
                },
                {
                    "noradId": "67446",
                    "tle": [
                        "1 67446C 26008B   26025.78034722 -.01222700  00000+0 -40845-2 0   259",
                        "2 67446  43.0010  94.2927 0001442 274.2440  62.1760 15.90402308    19"
                    ]
                },
                {
                    "noradId": "67445",
                    "tle": [
                        "1 67445C 26008A   26025.78034722 -.01213400  00000+0 -40591-2 0   253",
                        "2 67445  43.0011  94.2995 0001306 274.9131  58.8387 15.90365110    13"
                    ]
                }
            ]
        }
    ],
    "config": {}
}